{
    "links": {
        "self": "http://www.neowsapp.com/rest/v1/neo/3991611?api_key=iIulBulltgU6a56xZRHN4H3l9WmuAYTsLGpBGhQ2"
    },
    "id": "3991611",
    "neo_reference_id": "3991611",
    "name": "(2020 DH)",
    "designation": "2020 DH",
    "nasa_jpl_url": "http://ssd.jpl.nasa.gov/sbdb.cgi?sstr=3991611",
    "absolute_magnitude_h": 25.78,
    "estimated_diameter": {
        "kilometers": {
            "estimated_diameter_min": 0.0185590173,
            "estimated_diameter_max": 0.0414992243
        },
        "meters": {
            "estimated_diameter_min": 18.5590173004,
            "estimated_diameter_max": 41.4992242792
        },
        "miles": {
            "estimated_diameter_min": 0.0115320351,
            "estimated_diameter_max": 0.0257864145
        },
        "feet": {
            "estimated_diameter_min": 60.8891663197,
            "estimated_diameter_max": 136.1523149843
        }
    },
    "is_potentially_hazardous_asteroid": false,
    "close_approach_data": [
        {
            "close_approach_date": "2020-02-12",
            "close_approach_date_full": "2020-Feb-12 13:00",
            "epoch_date_close_approach": 1581512400000,
            "relative_velocity": {
                "kilometers_per_second": "13.3510875747",
                "kilometers_per_hour": "48063.9152689513",
                "miles_per_hour": "29865.0477958659"
            },
            "miss_distance": {
                "astronomical": "0.0187476802",
                "lunar": "7.2928475978",
                "kilometers": "2804613.025361174",
                "miles": "1742705.7236212412"
            },
            "orbiting_body": "Earth"
        }
    ],
    "orbital_data": {
        "orbit_id": "4",
        "orbit_determination_date": "2020-02-20 04:53:42",
        "first_observation_date": "2020-02-16",
        "last_observation_date": "2020-02-20",
        "data_arc_in_days": 4,
        "observations_used": 41,
        "orbit_uncertainty": "8",
        "minimum_orbit_intersection": ".0186735",
        "jupiter_tisserand_invariant": "4.532",
        "epoch_osculation": "2458896.5",
        "eccentricity": ".4618963864047204",
        "semi_major_axis": "1.439476381475331",
        "inclination": "10.57221168080808",
        "ascending_node_longitude": "148.3547993368375",
        "orbital_period": "630.8196921042354",
        "perihelion_distance": ".7745874425569326",
        "perihelion_argument": "282.0490500399962",
        "aphelion_distance": "2.104365320393729",
        "perihelion_time": "2458842.346378866990",
        "mean_anomaly": "30.90471627931082",
        "mean_motion": ".5706860526169407",
        "equinox": "J2000",
        "orbit_class": {
            "orbit_class_type": "APO",
            "orbit_class_description": "Near-Earth asteroid orbits which cross the Earth’s orbit similar to that of 1862 Apollo",
            "orbit_class_range": "a (semi-major axis) > 1.0 AU; q (perihelion) < 1.017 AU"
        }
    },
    "is_sentry_object": false
}